STARLINK-37078          
1 68174U 26050H   26090.55762285  .00270440  00000+0  13277-2 0  9994
2 68174  53.1587 172.1876 0001258  73.2482 286.8679 15.80930936  3936
STARLINK-36886          
1 68175U 26050J   26090.62008695  .00103254  00000+0  52000-3 0  9997
2 68175  53.1590 171.8652 0001016  65.4028 294.7101 15.80891407  3948
STARLINK-36905          
1 68176U 26050K   26090.61934067  .00292027  00000+0  14283-2 0  9995
2 68176  53.1587 171.8606 0001139  78.7227 281.3924 15.80953726  3946
STARLINK-36668          
1 68177U 26050L   26090.61859206  .00199724  00000+0  99035-3 0  9996
2 68177  53.1592 171.8550 0001254  60.4233 299.6914 15.80913817  3942
STARLINK-36677          
1 68178U 26050M   26090.61784289  .00270189  00000+0  13262-2 0  9997
2 68178  53.1593 171.8495 0001438  86.5702 273.5485 15.80935981  3946
STARLINK-37052          
1 68179U 26050N   26090.68030889  .00261401  00000+0  12833-2 0  9995
2 68179  53.1588 171.5278 0001035  89.7421 270.3721 15.80955495  3954
STARLINK-37035          
1 68180U 26050P   26090.67955762  .00345483  00000+0  16760-2 0  9998
2 68180  53.1589 171.5232 0000702 114.9096 245.2000 15.80985945  3950
STARLINK-37032          
1 68181U 26050Q   26090.67880565  .00228706  00000+0  11280-2 0  9997
2 68181  53.1593 171.5180 0000618 130.9546 229.1530 15.80946943  3956
STARLINK-37082          
1 68182U 26050R   26090.67805688  .00340595  00000+0  16534-2 0  9999
2 68182  53.1589 171.5131 0000693 107.9796 252.1302 15.80985473  3956
STARLINK-37102          
1 68183U 26050S   26090.67730759  .00241031  00000+0  11870-2 0  9999
2 68183  53.1592 171.5075 0001053  91.3201 268.7942 15.80944664  3956
STARLINK-36964          
1 68184U 26050T   26090.67655766  .00354184  00000+0  17163-2 0  9999
2 68184  53.1590 171.5031 0000831  87.0818 273.0300 15.80988094  3958
STARLINK-37061          
1 68185U 26050U   26090.61259012  .00344815  00000+0  16745-2 0  9993
2 68185  53.1590 171.8148 0001042  82.8964 277.2177 15.80965856  3949
