CCSDS_OMM_VERS = 2.0
CREATION_DATE  = 
ORIGINATOR     = 

OBJECT_NAME    = STARLINK-37078
OBJECT_ID      = 2026-050H
CENTER_NAME    = EARTH
REF_FRAME      = TEME
TIME_SYSTEM    = UTC
MEAN_ELEMENT_THEORY = SGP/SGP4

EPOCH          = 2026-03-31T13:22:58.614240
MEAN_MOTION    = 15.80930936
ECCENTRICITY   = .0001258
INCLINATION    = 53.1587
RA_OF_ASC_NODE = 172.1876
ARG_OF_PERICENTER = 73.2482
MEAN_ANOMALY   = 286.8679

EPHEMERIS_TYPE = 0
CLASSIFICATION_TYPE = U
NORAD_CAT_ID   = 68174
ELEMENT_SET_NO = 999
REV_AT_EPOCH   = 393
BSTAR          = .13277E-2
MEAN_MOTION_DOT = .27044E-2
MEAN_MOTION_DDOT = 0

CCSDS_OMM_VERS = 2.0
CREATION_DATE  = 
ORIGINATOR     = 

OBJECT_NAME    = STARLINK-36886
OBJECT_ID      = 2026-050J
CENTER_NAME    = EARTH
REF_FRAME      = TEME
TIME_SYSTEM    = UTC
MEAN_ELEMENT_THEORY = SGP/SGP4

EPOCH          = 2026-03-31T14:52:55.512480
MEAN_MOTION    = 15.80891407
ECCENTRICITY   = .0001016
INCLINATION    = 53.1590
RA_OF_ASC_NODE = 171.8652
ARG_OF_PERICENTER = 65.4028
MEAN_ANOMALY   = 294.7101

EPHEMERIS_TYPE = 0
CLASSIFICATION_TYPE = U
NORAD_CAT_ID   = 68175
ELEMENT_SET_NO = 999
REV_AT_EPOCH   = 394
BSTAR          = .52E-3
MEAN_MOTION_DOT = .103254E-2
MEAN_MOTION_DDOT = 0

CCSDS_OMM_VERS = 2.0
CREATION_DATE  = 
ORIGINATOR     = 

OBJECT_NAME    = STARLINK-36905
OBJECT_ID      = 2026-050K
CENTER_NAME    = EARTH
REF_FRAME      = TEME
TIME_SYSTEM    = UTC
MEAN_ELEMENT_THEORY = SGP/SGP4

EPOCH          = 2026-03-31T14:51:51.033888
MEAN_MOTION    = 15.80953726
ECCENTRICITY   = .0001139
INCLINATION    = 53.1587
RA_OF_ASC_NODE = 171.8606
ARG_OF_PERICENTER = 78.7227
MEAN_ANOMALY   = 281.3924

EPHEMERIS_TYPE = 0
CLASSIFICATION_TYPE = U
NORAD_CAT_ID   = 68176
ELEMENT_SET_NO = 999
REV_AT_EPOCH   = 394
BSTAR          = .14283E-2
MEAN_MOTION_DOT = .292027E-2
MEAN_MOTION_DDOT = 0

CCSDS_OMM_VERS = 2.0
CREATION_DATE  = 
ORIGINATOR     = 

OBJECT_NAME    = STARLINK-36668
OBJECT_ID      = 2026-050L
CENTER_NAME    = EARTH
REF_FRAME      = TEME
TIME_SYSTEM    = UTC
MEAN_ELEMENT_THEORY = SGP/SGP4

EPOCH          = 2026-03-31T14:50:46.353984
MEAN_MOTION    = 15.80913817
ECCENTRICITY   = .0001254
INCLINATION    = 53.1592
RA_OF_ASC_NODE = 171.8550
ARG_OF_PERICENTER = 60.4233
MEAN_ANOMALY   = 299.6914

EPHEMERIS_TYPE = 0
CLASSIFICATION_TYPE = U
NORAD_CAT_ID   = 68177
ELEMENT_SET_NO = 999
REV_AT_EPOCH   = 394
BSTAR          = .99035E-3
MEAN_MOTION_DOT = .199724E-2
MEAN_MOTION_DDOT = 0

CCSDS_OMM_VERS = 2.0
CREATION_DATE  = 
ORIGINATOR     = 

OBJECT_NAME    = STARLINK-36677
OBJECT_ID      = 2026-050M
CENTER_NAME    = EARTH
REF_FRAME      = TEME
TIME_SYSTEM    = UTC
MEAN_ELEMENT_THEORY = SGP/SGP4

EPOCH          = 2026-03-31T14:49:41.625696
MEAN_MOTION    = 15.80935981
ECCENTRICITY   = .0001438
INCLINATION    = 53.1593
RA_OF_ASC_NODE = 171.8495
ARG_OF_PERICENTER = 86.5702
MEAN_ANOMALY   = 273.5485

EPHEMERIS_TYPE = 0
CLASSIFICATION_TYPE = U
NORAD_CAT_ID   = 68178
ELEMENT_SET_NO = 999
REV_AT_EPOCH   = 394
BSTAR          = .13262E-2
MEAN_MOTION_DOT = .270189E-2
MEAN_MOTION_DDOT = 0

CCSDS_OMM_VERS = 2.0
CREATION_DATE  = 
ORIGINATOR     = 

OBJECT_NAME    = STARLINK-37052
OBJECT_ID      = 2026-050N
CENTER_NAME    = EARTH
REF_FRAME      = TEME
TIME_SYSTEM    = UTC
MEAN_ELEMENT_THEORY = SGP/SGP4

EPOCH          = 2026-03-31T16:19:38.688096
MEAN_MOTION    = 15.80955495
ECCENTRICITY   = .0001035
INCLINATION    = 53.1588
RA_OF_ASC_NODE = 171.5278
ARG_OF_PERICENTER = 89.7421
MEAN_ANOMALY   = 270.3721

EPHEMERIS_TYPE = 0
CLASSIFICATION_TYPE = U
NORAD_CAT_ID   = 68179
ELEMENT_SET_NO = 999
REV_AT_EPOCH   = 395
BSTAR          = .12833E-2
MEAN_MOTION_DOT = .261401E-2
MEAN_MOTION_DDOT = 0

CCSDS_OMM_VERS = 2.0
CREATION_DATE  = 
ORIGINATOR     = 

OBJECT_NAME    = STARLINK-37035
OBJECT_ID      = 2026-050P
CENTER_NAME    = EARTH
REF_FRAME      = TEME
TIME_SYSTEM    = UTC
MEAN_ELEMENT_THEORY = SGP/SGP4

EPOCH          = 2026-03-31T16:18:33.778368
MEAN_MOTION    = 15.80985945
ECCENTRICITY   = .0000702
INCLINATION    = 53.1589
RA_OF_ASC_NODE = 171.5232
ARG_OF_PERICENTER = 114.9096
MEAN_ANOMALY   = 245.2000

EPHEMERIS_TYPE = 0
CLASSIFICATION_TYPE = U
NORAD_CAT_ID   = 68180
ELEMENT_SET_NO = 999
REV_AT_EPOCH   = 395
BSTAR          = .1676E-2
MEAN_MOTION_DOT = .345483E-2
MEAN_MOTION_DDOT = 0

CCSDS_OMM_VERS = 2.0
CREATION_DATE  = 
ORIGINATOR     = 

OBJECT_NAME    = STARLINK-37032
OBJECT_ID      = 2026-050Q
CENTER_NAME    = EARTH
REF_FRAME      = TEME
TIME_SYSTEM    = UTC
MEAN_ELEMENT_THEORY = SGP/SGP4

EPOCH          = 2026-03-31T16:17:28.808160
MEAN_MOTION    = 15.80946943
ECCENTRICITY   = .0000618
INCLINATION    = 53.1593
RA_OF_ASC_NODE = 171.5180
ARG_OF_PERICENTER = 130.9546
MEAN_ANOMALY   = 229.1530

EPHEMERIS_TYPE = 0
CLASSIFICATION_TYPE = U
NORAD_CAT_ID   = 68181
ELEMENT_SET_NO = 999
REV_AT_EPOCH   = 395
BSTAR          = .1128E-2
MEAN_MOTION_DOT = .228706E-2
MEAN_MOTION_DDOT = 0

CCSDS_OMM_VERS = 2.0
CREATION_DATE  = 
ORIGINATOR     = 

OBJECT_NAME    = STARLINK-37082
OBJECT_ID      = 2026-050R
CENTER_NAME    = EARTH
REF_FRAME      = TEME
TIME_SYSTEM    = UTC
MEAN_ELEMENT_THEORY = SGP/SGP4

EPOCH          = 2026-03-31T16:16:24.114432
MEAN_MOTION    = 15.80985473
ECCENTRICITY   = .0000693
INCLINATION    = 53.1589
RA_OF_ASC_NODE = 171.5131
ARG_OF_PERICENTER = 107.9796
MEAN_ANOMALY   = 252.1302

EPHEMERIS_TYPE = 0
CLASSIFICATION_TYPE = U
NORAD_CAT_ID   = 68182
ELEMENT_SET_NO = 999
REV_AT_EPOCH   = 395
BSTAR          = .16534E-2
MEAN_MOTION_DOT = .340595E-2
MEAN_MOTION_DDOT = 0

CCSDS_OMM_VERS = 2.0
CREATION_DATE  = 
ORIGINATOR     = 

OBJECT_NAME    = STARLINK-37102
OBJECT_ID      = 2026-050S
CENTER_NAME    = EARTH
REF_FRAME      = TEME
TIME_SYSTEM    = UTC
MEAN_ELEMENT_THEORY = SGP/SGP4

EPOCH          = 2026-03-31T16:15:19.375776
MEAN_MOTION    = 15.80944664
ECCENTRICITY   = .0001053
INCLINATION    = 53.1592
RA_OF_ASC_NODE = 171.5075
ARG_OF_PERICENTER = 91.3201
MEAN_ANOMALY   = 268.7942

EPHEMERIS_TYPE = 0
CLASSIFICATION_TYPE = U
NORAD_CAT_ID   = 68183
ELEMENT_SET_NO = 999
REV_AT_EPOCH   = 395
BSTAR          = .1187E-2
MEAN_MOTION_DOT = .241031E-2
MEAN_MOTION_DDOT = 0

CCSDS_OMM_VERS = 2.0
CREATION_DATE  = 
ORIGINATOR     = 

OBJECT_NAME    = STARLINK-36964
OBJECT_ID      = 2026-050T
CENTER_NAME    = EARTH
REF_FRAME      = TEME
TIME_SYSTEM    = UTC
MEAN_ELEMENT_THEORY = SGP/SGP4

EPOCH          = 2026-03-31T16:14:14.581824
MEAN_MOTION    = 15.80988094
ECCENTRICITY   = .0000831
INCLINATION    = 53.1590
RA_OF_ASC_NODE = 171.5031
ARG_OF_PERICENTER = 87.0818
MEAN_ANOMALY   = 273.0300

EPHEMERIS_TYPE = 0
CLASSIFICATION_TYPE = U
NORAD_CAT_ID   = 68184
ELEMENT_SET_NO = 999
REV_AT_EPOCH   = 395
BSTAR          = .17163E-2
MEAN_MOTION_DOT = .354184E-2
MEAN_MOTION_DDOT = 0

CCSDS_OMM_VERS = 2.0
CREATION_DATE  = 
ORIGINATOR     = 

OBJECT_NAME    = STARLINK-37061
OBJECT_ID      = 2026-050U
CENTER_NAME    = EARTH
REF_FRAME      = TEME
TIME_SYSTEM    = UTC
MEAN_ELEMENT_THEORY = SGP/SGP4

EPOCH          = 2026-03-31T14:42:07.786368
MEAN_MOTION    = 15.80965856
ECCENTRICITY   = .0001042
INCLINATION    = 53.1590
RA_OF_ASC_NODE = 171.8148
ARG_OF_PERICENTER = 82.8964
MEAN_ANOMALY   = 277.2177

EPHEMERIS_TYPE = 0
CLASSIFICATION_TYPE = U
NORAD_CAT_ID   = 68185
ELEMENT_SET_NO = 999
REV_AT_EPOCH   = 394
BSTAR          = .16745E-2
MEAN_MOTION_DOT = .344815E-2
MEAN_MOTION_DDOT = 0

